[{"OBJECT_NAME":"STARLINK-3900","OBJECT_ID":"2022-049L","EPOCH":"2026-03-09T22:31:04.534752","MEAN_MOTION":15.08835619,"ECCENTRICITY":0.00016983,"INCLINATION":53.2182,"RA_OF_ASC_NODE":48.005,"ARG_OF_PERICENTER":80.2222,"MEAN_ANOMALY":279.8962,"EPHEMERIS_TYPE":0,"CLASSIFICATION_TYPE":"U","NORAD_CAT_ID":52461,"ELEMENT_SET_NO":999,"REV_AT_EPOCH":21242,"BSTAR":8.4100662e-5,"MEAN_MOTION_DOT":1.051e-5,"MEAN_MOTION_DDOT":0},{"OBJECT_NAME":"OBJECT A","OBJECT_ID":"2025-313A","EPOCH":"2026-03-09T21:22:42.572064","MEAN_MOTION":14.66981537,"ECCENTRICITY":0.02771301,"INCLINATION":97.5525,"RA_OF_ASC_NODE":140.9497,"ARG_OF_PERICENTER":295.9559,"MEAN_ANOMALY":61.3334,"EPHEMERIS_TYPE":0,"CLASSIFICATION_TYPE":"U","NORAD_CAT_ID":67248,"ELEMENT_SET_NO":999,"REV_AT_EPOCH":1046,"BSTAR":0.0001505143,"MEAN_MOTION_DOT":1.44e-5,"MEAN_MOTION_DDOT":0}]
